METHANESAT              
1 59101U 24043D   25206.79085259  .00001915  00000+0  17784-3 0  9994
2 59101  97.8057 332.6803 0011436  26.8790 333.3021 14.95537753 75822
GOSAT-GW (IBUKI GW)     
1 64694U 25141A   25206.80712122  .00000798  00000+0  14889-3 0  9996
2 64694  98.0257 145.0130 0001510  84.3857 275.7519 14.67578014  3976
GHGSAT-C1               
1 46278U 20061G   25207.18369685  .00015029  00000+0  25347-3 0  9998
2 46278  97.2493 281.1743 0002914 139.3784 220.7687 15.51753739272638
GHGSAT-C2               
1 47509U 21006DA  25206.63211497  .00005396  00000+0  17303-3 0  9991
2 47509  97.2653 254.5884 0004099 255.8376 104.2411 15.32750619249741
GHGSAT-C3               
1 52737U 22057F   25207.17563309  .00006112  00000+0  22123-3 0  9992
2 52737  97.6179 337.9220 0006647 182.9022 177.2180 15.28777003175636
GHGSAT-C4               
1 52746U 22057Q   25207.19388618  .00005957  00000+0  21570-3 0  9993
2 52746  97.6110 337.0955 0007229 169.4076 190.7317 15.28769976175646
GHGSAT-C5               
1 52744U 22057N   25207.14472720  .00005722  00000+0  20740-3 0  9992
2 52744  97.6267 339.0865 0007728 181.1270 178.9953 15.28754833175639
GHGSAT-C6               
1 56204U 23054AC  25207.18382241  .00009354  00000+0  21808-3 0  9998
2 56204  97.3274 108.4398 0010537 139.3676 220.8359 15.42406172128030
GHGSAT-C7               
1 56209U 23054AH  25207.19620035  .00008020  00000+0  19231-3 0  9996
2 56209  97.3235 107.9998 0010633 133.3339 226.8796 15.41606398128031
GHGSAT-C8               
1 56186U 23054J   25207.15863780  .00009602  00000+0  22384-3 0  9992
2 56186  97.3243 107.8993 0007319 152.8360 207.3272 15.42431548128010
SENTINEL-5P             
1 42969U 17064A   25206.71234716  .00000048  00000+0  43746-4 0  9993
2 42969  98.7585 146.6989 0001322  85.8995 274.2332 14.19534062403240
ENMAP                   
1 52159U 22033C   25207.19798517  .00000490  00000+0  80414-4 0  9998
2 52159  97.9783 289.1301 0001314  87.6646 272.4713 14.74968591178597
PRISMA                  
1 44072U 19015A   25207.19428822  .00000910  00000+0  11668-3 0  9999
2 44072  97.8739 281.6388 0001241  93.7631 266.3725 14.83640510343716
SENTINEL-2A             
1 40697U 15028A   25207.20073813  .00000119  00000+0  61951-4 0  9998
2 40697  98.5682 281.7295 0001165  93.9847 266.1469 14.30820368527118
SENTINEL-2B             
1 42063U 17013A   25207.19354378  .00000116  00000+0  60950-4 0  9994
2 42063  98.5685 281.6646 0001256  98.9930 261.1395 14.30822215438036
SENTINEL-2C             
1 60989U 24157A   25207.15882276  .00000114  00000+0  60178-4 0  9997
2 60989  98.5672 281.7044 0001185  97.5597 262.5720 14.30820741 46367
LANDSAT 8               
1 39084U 13008A   25207.18830146  .00000360  00000+0  89934-4 0  9998
2 39084  98.2239 277.1835 0001265  89.4899 270.6444 14.57110026662247
LANDSAT 9               
1 49260U 21088A   25207.22262824  .00000391  00000+0  96792-4 0  9993
2 49260  98.2259 277.2181 0001358  85.3779 274.7575 14.57107591203521
TANAGER-1               
1 60507U 24149AR  25207.19891384  .00011389  00000+0  25292-3 0  9991
2 60507  97.4017 292.0444 0009654 237.7703 122.2610 15.43818198 52746
